[{"OBJECT_NAME":"STARLINK-32049","OBJECT_ID":"2024-124S","EPOCH":"2026-03-09T21:21:00.490464","MEAN_MOTION":15.30174808,"ECCENTRICITY":0.00011359,"INCLINATION":53.1626,"RA_OF_ASC_NODE":321.7543,"ARG_OF_PERICENTER":84.9069,"MEAN_ANOMALY":275.2062,"EPHEMERIS_TYPE":0,"CLASSIFICATION_TYPE":"U","NORAD_CAT_ID":60199,"ELEMENT_SET_NO":999,"REV_AT_EPOCH":9555,"BSTAR":2.7650758e-5,"MEAN_MOTION_DOT":4.59e-6,"MEAN_MOTION_DDOT":0},{"OBJECT_NAME":"NUSAT-50 (NANCY ROMAN)","OBJECT_ID":"2024-149AB","EPOCH":"2026-03-09T19:15:16.765632","MEAN_MOTION":15.29713355,"ECCENTRICITY":0.00025229,"INCLINATION":97.3817,"RA_OF_ASC_NODE":150.7693,"ARG_OF_PERICENTER":238.0469,"MEAN_ANOMALY":122.0527,"EPHEMERIS_TYPE":0,"CLASSIFICATION_TYPE":"U","NORAD_CAT_ID":60493,"ELEMENT_SET_NO":999,"REV_AT_EPOCH":8693,"BSTAR":0.0004225155,"MEAN_MOTION_DOT":0.00012094,"MEAN_MOTION_DDOT":0}]
